NORAD_CAT_ID,OBJECT_NAME,OBJECT_TYPE,EPOCH,MEAN_MOTION,ECCENTRICITY,INCLINATION,RA_OF_ASC_NODE,ARG_OF_PERICENTER,MEAN_ANOMALY,BSTAR,MEAN_MOTION_DOT,MEAN_MOTION_DDOT,TLE_LINE0,TLE_LINE1,TLE_LINE2,SEMIMAJOR_AXIS,PERIOD,APOGEE,PERIGEE,DECAYED
54094.0,STARLINK-5219,PAYLOAD,2023-01-15 11:19:38,15.08831895,7.68e-05,53.2188,92.99,62.6814,297.4256,0.00010285,1.349e-05,0.0,0 STARLINK-5219,1 54094U 22136AV  23015.47196867  .00001349  00000-0  10285-3 0  9991,2 54094  53.2188  92.9900 0000768  62.6814 297.4256 15.08831895 13498,6917.905,95.438,540.3009999999999,539.239,0.0
54094.0,STARLINK-5219,PAYLOAD,2023-01-15 12:55:00,15.08841114,0.0001327,53.2167,92.6964,64.3432,295.7698,0.00016149,2.283e-05,0.0,0 STARLINK-5219,1 54094U 22136AV  23015.53820228  .00002283  00000-0  16149-3 0  9996,2 54094  53.2167  92.6964 0001327  64.3432 295.7698 15.08841114 13978,6917.877,95.437,540.66,538.8240000000001,0.0
54094.0,STARLINK-5219,PAYLOAD,2023-01-16 11:10:23,15.08853747,0.0001059,53.2182,88.527,89.6816,270.4298,0.00013679,1.891e-05,0.0,0 STARLINK-5219,1 54094U 22136AV  23016.46554954  .00001891  00000-0  13679-3 0  9998,2 54094  53.2182  88.5270 0001059  89.6816 270.4298 15.08853747 14115,6917.838000000001,95.437,540.436,538.971,0.0
54094.0,STARLINK-5219,PAYLOAD,2023-01-16 12:45:46,15.08864157,0.000118,53.2185,88.2291,94.8545,265.2582,7.9364e-05,9.76e-06,0.0,0 STARLINK-5219,1 54094U 22136AV  23016.53178438  .00000976  00000-0  79364-4 0  9992,2 54094  53.2185  88.2291 0001180  94.8545 265.2582 15.08864157 14126,6917.807,95.436,540.488,538.855,0.0
54094.0,STARLINK-5219,PAYLOAD,2023-01-17 12:36:36,15.08825208,0.0001213,53.2174,83.7729,88.7316,271.3815,-0.00020007,-3.469e-05,0.0,0 STARLINK-5219,1 54094U 22136AV  23017.52542381 -.00003469  00000-0 -20007-3 0  9995,2 54094  53.2174  83.7729 0001213  88.7316 271.3815 15.08825208 14272,6917.926,95.438,540.63,538.951,0.0
54094.0,STARLINK-5219,PAYLOAD,2023-01-18 09:16:34,15.08858599,0.0001238,53.219,79.9072,110.4669,249.6456,0.00013984,1.939e-05,0.0,0 STARLINK-5219,1 54094U 22136AV  23018.38651383  .00001939  00000-0  13984-3 0  9997,2 54094  53.2190  79.9072 0001238 110.4669 249.6456 15.08858599 14402,6917.8240000000005,95.436,540.545,538.832,0.0
54094.0,STARLINK-5219,PAYLOAD,2023-01-18 12:27:20,15.08866585,0.0001153,53.2185,79.3108,102.1934,257.9187,6.5788e-05,7.6e-06,0.0,0 STARLINK-5219,1 54094U 22136AV  23018.51898755  .00000760  00000-0  65788-4 0  9999,2 54094  53.2185  79.3108 0001153 102.1934 257.9187 15.08866585 13955,6917.799,95.436,540.462,538.867,0.0
54094.0,STARLINK-5219,PAYLOAD,2023-01-18 20:24:16,15.08858232,0.0001248,53.2194,77.8228,94.017,266.0965,3.4559e-05,2.62e-06,0.0,0 STARLINK-5219,1 54094U 22136AV  23018.85019114  .00000262  00000-0  34559-4 0  9999,2 54094  53.2194  77.8228 0001248  94.0170 266.0965 15.08858232 14009,6917.825,95.436,540.553,538.826,0.0
54094.0,STARLINK-5219,PAYLOAD,2023-01-19 04:21:13,15.08839402,0.0001007,53.2179,76.3398,100.4476,259.6629,4.4371000000000006e-05,4.18e-06,0.0,0 STARLINK-5219,1 54094U 22136AV  23019.18140968  .00000418  00000-0  44371-4 0  9994,2 54094  53.2179  76.3398 0001007 100.4476 259.6629 15.08839402 14528,6917.882,95.438,540.444,539.0509999999999,0.0
54094.0,STARLINK-5219,PAYLOAD,2023-01-19 10:42:45,15.08846836,6.05e-05,53.2183,75.1495,85.9217,274.1844,0.00012512,1.705e-05,0.0,0 STARLINK-5219,1 54094U 22136AV  23019.44636144  .00001705  00000-0  12512-3 0  9990,2 54094  53.2183  75.1495 0000605  85.9217 274.1844 15.08846836 14565,6917.859,95.437,540.143,539.306,0.0
54094.0,STARLINK-5219,PAYLOAD,2023-01-19 12:18:08,15.08848385,0.0001008,53.2179,74.8517,96.6403,263.4704,0.00017347,2.475e-05,0.0,0 STARLINK-5219,1 54094U 22136AV  23019.51259864  .00002475  00000-0  17347-3 0  9994,2 54094  53.2179  74.8517 0001008  96.6403 263.4704 15.08848385 14102,6917.855,95.437,540.4169999999999,539.0219999999999,0.0
54094.0,STARLINK-5219,PAYLOAD,2023-01-19 20:15:05,15.08833406,0.0001244,53.2184,73.3643,90.1466,269.9669,7.3504e-06,-1.71e-06,0.0,0 STARLINK-5219,1 54094U 22136AV  23019.84381389 -.00000171  00000-0  73504-5 0  9999,2 54094  53.2184  73.3643 0001244  90.1466 269.9669 15.08833406 14628,6917.901,95.438,540.626,538.905,0.0
54094.0,STARLINK-5219,PAYLOAD,2023-01-20 10:33:33,15.08851211,0.0001203,53.2178,70.6905,107.0906,253.0218,-0.00015416,-2.741e-05,0.0,0 STARLINK-5219,1 54094U 22136AV  23020.43997016 -.00002741  00000-0 -15416-3 0  9998,2 54094  53.2178  70.6905 0001203 107.0906 253.0218 15.08851211 14712,6917.846,95.437,540.543,538.879,0.0
54094.0,STARLINK-5219,PAYLOAD,2023-01-21 10:24:20,15.08839149,0.0001638,53.2194,66.2286,89.7529,270.365,-4.4062e-05,-9.89e-06,0.0,0 STARLINK-5219,1 54094U 22136AV  23021.43357489 -.00000989  00000-0 -44062-4 0  9995,2 54094  53.2194  66.2286 0001638  89.7529 270.3650 15.08839149 14866,6917.883000000001,95.438,540.881,538.615,0.0
54094.0,STARLINK-5219,PAYLOAD,2023-01-21 11:59:43,15.08849721,0.0001217999999999,53.2179,65.9305,108.9738,251.1386,2.7164e-05,1.45e-06,0.0,0 STARLINK-5219,1 54094U 22136AV  23021.49980417  .00000145  00000-0  27164-4 0  9990,2 54094  53.2179  65.9305 0001218 108.9738 251.1386 15.08849721 14878,6917.851,95.437,540.558,538.873,0.0
54094.0,STARLINK-5219,PAYLOAD,2023-01-22 19:47:26,15.08843648,0.0001341999999999,53.2186,59.9837,93.292,266.8226,4.6754e-06,-2.13e-06,0.0,0 STARLINK-5219,1 54094U 22136AV  23022.82460947 -.00000213  00000-0  46754-5 0  9993,2 54094  53.2186  59.9837 0001342  93.2920 266.8226 15.08843648 15077,6917.869000000001,95.437,540.663,538.806,0.0
54094.0,STARLINK-5219,PAYLOAD,2023-01-23 11:41:18,15.08840847,0.0001504,53.2197,57.0065,101.52,258.5961,-2.2968e-05,-6.54e-06,0.0,0 STARLINK-5219,1 54094U 22136AV  23023.48701430 -.00000654  00000-0 -22968-4 0  9991,2 54094  53.2197  57.0065 0001504 101.5200 258.5961 15.08840847 15178,6917.878000000001,95.438,540.783,538.702,0.0
54094.0,STARLINK-5219,PAYLOAD,2023-01-25 05:01:20,15.08832656,0.0001737,53.2189,49.2737,105.7592,254.3592,5.0181000000000006e-05,5.11e-06,0.0,0 STARLINK-5219,1 54094U 22136AV  23025.20925942  .00000511  00000-0  50181-4 0  9997,2 54094  53.2189  49.2737 0001737 105.7592 254.3592 15.08832656 15438,6917.903,95.438,540.969,538.566,0.0
54094.0,STARLINK-5219,PAYLOAD,2023-01-25 09:47:29,15.08840329,0.0001553,53.2192,48.3834,98.5612,261.5556,5.1344e-05,5.29e-06,0.0,0 STARLINK-5219,1 54094U 22136AV  23025.40797554  .00000529  00000-0  51344-4 0  9996,2 54094  53.2192  48.3834 0001553  98.5612 261.5556 15.08840329 14994,6917.879,95.438,540.819,538.67,0.0
54094.0,STARLINK-5219,PAYLOAD,2023-01-26 08:02:52,15.08846696,0.0001504,53.2181,44.2215,106.1304,253.9854,1.6747e-05,-2.1e-07,0.0,0 STARLINK-5219,1 54094U 22136AV  23026.33533364 -.00000021  00000-0  16747-4 0  9992,2 54094  53.2181  44.2215 0001504 106.1304 253.9854 15.08846696 15136,6917.86,95.437,540.765,538.684,0.0
54094.0,STARLINK-5219,PAYLOAD,2023-01-27 01:32:08,15.0883567,0.0001693,53.2196,40.9525,101.6908,258.4274,1.2619e-05,-8.7e-07,0.0,0 STARLINK-5219,1 54094U 22136AV  23027.06398245 -.00000087  00000-0  12619-4 0  9996,2 54094  53.2196  40.9525 0001693 101.6908 258.4274 15.08835670 15718,6917.894,95.438,540.93,538.587,0.0
54094.0,STARLINK-5219,PAYLOAD,2023-01-27 11:04:27,15.08832383,0.0001563,53.2195,39.1666,97.3109,262.806,4.0756e-05,3.61e-06,0.0,0 STARLINK-5219,1 54094U 22136AV  23027.46142410  .00000361  00000-0  40756-4 0  9998,2 54094  53.2195  39.1666 0001563  97.3109 262.8060 15.08832383 15308,6917.904,95.438,540.85,538.687,0.0
54094.0,STARLINK-5219,PAYLOAD,2023-01-28 04:33:41,15.08839901,0.0001431999999999,53.2181,35.8959,100.5295,259.5858,-5.7396e-06,-3.79e-06,0.0,0 STARLINK-5219,1 54094U 22136AV  23028.19006277 -.00000379  00000-0 -57396-5 0  9999,2 54094  53.2181  35.8959 0001432 100.5295 259.5858 15.08839901 15883,6917.880999999999,95.438,540.736,538.755,0.0
54094.0,STARLINK-5219,PAYLOAD,2023-01-28 09:19:50,15.08846592,0.0001438,53.2175,35.0031,101.2136,258.9018,-1.0817e-05,-4.6e-06,0.0,0 STARLINK-5219,1 54094U 22136AV  23028.38877845 -.00000460  00000-0 -10817-4 0  9994,2 54094  53.2175  35.0031 0001438 101.2136 258.9018 15.08846592 15444,6917.86,95.437,540.72,538.73,0.0
54094.0,STARLINK-5219,PAYLOAD,2023-01-29 09:10:37,15.08845294,0.0001328,53.2182,30.5436,92.4257,267.6887,8.3106e-05,1.035e-05,0.0,0 STARLINK-5219,1 54094U 22136AV  23029.38237616  .00001035  00000-0  83106-4 0  9999,2 54094  53.2182  30.5436 0001328  92.4257 267.6887 15.08845294 15599,6917.864,95.437,540.648,538.811,0.0
54094.0,STARLINK-5219,PAYLOAD,2023-01-30 05:50:38,15.08838274,0.0001128,53.2195,26.6792,87.6362,272.4759,-9.401e-06,-4.37e-06,0.0,0 STARLINK-5219,1 54094U 22136AV  23030.24350562 -.00000437  00000-0 -94010-5 0  9996,2 54094  53.2195  26.6792 0001128  87.6362 272.4759 15.08838274 16194,6917.886,95.438,540.531,538.97,0.0
54094.0,STARLINK-5219,PAYLOAD,2023-01-30 09:01:24,15.08841269,0.0001258,53.2187,26.0828,99.9625,260.1509,7.4154e-06,-1.7e-06,0.0,0 STARLINK-5219,1 54094U 22136AV  23030.37598217 -.00000170  00000-0  74154-5 0  9991,2 54094  53.2187  26.0828 0001258  99.9625 260.1509 15.08841269 15746,6917.877,95.437,540.612,538.871,0.0
54094.0,STARLINK-5219,PAYLOAD,2023-01-31 05:41:25,15.08848175,0.0001159,53.2186,22.2178,86.9481,273.1644,2.6911e-05,1.41e-06,0.0,0 STARLINK-5219,1 54094U 22136AV  23031.23709636  .00000141  00000-0  26911-4 0  9990,2 54094  53.2186  22.2178 0001159  86.9481 273.1644 15.08848175 16341,6917.855,95.437,540.522,538.919,0.0
54094.0,STARLINK-5219,PAYLOAD,2023-01-31 08:52:11,15.08848346,0.0001328,53.2183,21.6227,94.5672,265.5471,3.8095e-05,3.19e-06,0.0,0 STARLINK-5219,1 54094U 22136AV  23031.36957524  .00000319  00000-0  38095-4 0  9998,2 54094  53.2183  21.6227 0001328  94.5672 265.5471 15.08848346 15893,6917.855,95.437,540.639,538.801,0.0
